[{"OBJECT_NAME":"JILIN-1 GAOFEN 03D48","OBJECT_ID":"2022-167P","EPOCH":"2026-03-09T23:48:37.804608","MEAN_MOTION":15.32947339,"ECCENTRICITY":0.00075954,"INCLINATION":97.6781,"RA_OF_ASC_NODE":234.4968,"ARG_OF_PERICENTER":111.3084,"MEAN_ANOMALY":248.8969,"EPHEMERIS_TYPE":0,"CLASSIFICATION_TYPE":"U","NORAD_CAT_ID":54695,"ELEMENT_SET_NO":999,"REV_AT_EPOCH":18018,"BSTAR":0.00049677114,"MEAN_MOTION_DOT":0.00015755,"MEAN_MOTION_DDOT":0},{"OBJECT_NAME":"STARLINK-32275","OBJECT_ID":"2024-138F","EPOCH":"2026-03-09T22:13:14.364480","MEAN_MOTION":15.3018593,"ECCENTRICITY":0.00012512,"INCLINATION":53.1615,"RA_OF_ASC_NODE":308.5162,"ARG_OF_PERICENTER":85.8575,"MEAN_ANOMALY":274.2569,"EPHEMERIS_TYPE":0,"CLASSIFICATION_TYPE":"U","NORAD_CAT_ID":60360,"ELEMENT_SET_NO":999,"REV_AT_EPOCH":9066,"BSTAR":2.5723003e-5,"MEAN_MOTION_DOT":4.02e-6,"MEAN_MOTION_DDOT":0}]
